[{"OBJECT_NAME":"BRO-11","OBJECT_ID":"2023-174J","EPOCH":"2026-03-09T23:01:09.890400","MEAN_MOTION":15.26267731,"ECCENTRICITY":0.00104518,"INCLINATION":97.3961,"RA_OF_ASC_NODE":146.7679,"ARG_OF_PERICENTER":189.9892,"MEAN_ANOMALY":170.1141,"EPHEMERIS_TYPE":0,"CLASSIFICATION_TYPE":"U","NORAD_CAT_ID":58264,"ELEMENT_SET_NO":999,"REV_AT_EPOCH":12961,"BSTAR":0.00032296323,"MEAN_MOTION_DOT":8.313e-5,"MEAN_MOTION_DDOT":0},{"OBJECT_NAME":"STARLINK-32796","OBJECT_ID":"2025-014E","EPOCH":"2026-03-09T05:51:33.518016","MEAN_MOTION":15.27587037,"ECCENTRICITY":8.861e-5,"INCLINATION":42.9965,"RA_OF_ASC_NODE":156.5235,"ARG_OF_PERICENTER":178.9526,"MEAN_ANOMALY":181.1328,"EPHEMERIS_TYPE":0,"CLASSIFICATION_TYPE":"U","NORAD_CAT_ID":62739,"ELEMENT_SET_NO":999,"REV_AT_EPOCH":6319,"BSTAR":0.0015179792,"MEAN_MOTION_DOT":0.00041755,"MEAN_MOTION_DDOT":0}]
